NORAD_CAT_ID,OBJECT_NAME,OBJECT_TYPE,EPOCH,MEAN_MOTION,ECCENTRICITY,INCLINATION,RA_OF_ASC_NODE,ARG_OF_PERICENTER,MEAN_ANOMALY,BSTAR,MEAN_MOTION_DOT,MEAN_MOTION_DDOT,TLE_LINE0,TLE_LINE1,TLE_LINE2,SEMIMAJOR_AXIS,PERIOD,APOGEE,PERIGEE,DECAYED
52483.0,STARLINK-3875,PAYLOAD,2023-06-15 09:55:11,15.08835206,6.83e-05,53.2154,210.5592,85.3435,274.7635,4.5194e-05,4.32e-06,0.0,0 STARLINK-3875,1 52483U 22049AJ  23166.41332608  .00000432  00000-0  45194-4 0  9990,2 52483  53.2154 210.5592 0000683  85.3435 274.7635 15.08835206 61844,6917.895,95.438,540.233,539.288,0.0
52483.0,STARLINK-3875,PAYLOAD,2023-06-15 13:05:57,15.08836317,6.36e-05,53.2148,209.9628,78.7828,281.3235,5.6027e-05,6.04e-06,0.0,0 STARLINK-3875,1 52483U 22049AJ  23166.54580537  .00000604  00000-0  56027-4 0  9998,2 52483  53.2148 209.9628 0000636  78.7828 281.3235 15.08836317 62945,6917.892,95.438,540.197,539.317,0.0
52483.0,STARLINK-3875,PAYLOAD,2023-06-16 09:45:57,15.08844674,6.82e-05,53.215,206.0974,75.9903,284.1165,0.00010231,1.341e-05,0.0,0 STARLINK-3875,1 52483U 22049AJ  23167.40692002  .00001341  00000-0  10231-3 0  9990,2 52483  53.2150 206.0974 0000682  75.9903 284.1165 15.08844674 61996,6917.866,95.437,540.203,539.259,0.0
52483.0,STARLINK-3875,PAYLOAD,2023-06-16 19:18:17,15.08836959,7.09e-05,53.215,204.3134,73.804,286.303,8.1178e-05,1.004e-05,0.0,0 STARLINK-3875,1 52483U 22049AJ  23167.80436471  .00001004  00000-0  81178-4 0  9995,2 52483  53.2150 204.3134 0000709  73.8040 286.3030 15.08836959 63134,6917.89,95.438,540.245,539.264,0.0
52483.0,STARLINK-3875,PAYLOAD,2023-06-17 01:39:49,15.08835647,7.23e-05,53.2151,203.124,76.435,283.6723,6.2799e-05,7.12e-06,0.0,0 STARLINK-3875,1 52483U 22049AJ  23168.06932661  .00000712  00000-0  62799-4 0  9999,2 52483  53.2151 203.1240 0000723  76.4350 283.6723 15.08835647 62095,6917.894,95.438,540.259,539.259,0.0
52483.0,STARLINK-3875,PAYLOAD,2023-06-17 08:01:22,15.08835284,7.01e-05,53.2151,201.9343,79.8099,280.2973,5.3104e-05,5.58e-06,0.0,0 STARLINK-3875,1 52483U 22049AJ  23168.33428774  .00000558  00000-0  53104-4 0  9992,2 52483  53.2151 201.9343 0000701  79.8099 280.2973 15.08835284 63210,6917.895,95.438,540.245,539.275,0.0
52483.0,STARLINK-3875,PAYLOAD,2023-06-17 19:09:04,15.08835814,6.94e-05,53.2152,199.8528,80.9541,279.153,3.1316e-05,2.11e-06,0.0,0 STARLINK-3875,1 52483U 22049AJ  23168.79796893  .00000211  00000-0  31316-4 0  9999,2 52483  53.2152 199.8528 0000694  80.9541 279.1530 15.08835814 63289,6917.893,95.438,540.238,539.278,0.0
52483.0,STARLINK-3875,PAYLOAD,2023-06-18 11:02:56,15.08838014,7.18e-05,53.2153,196.8796,83.9163,276.1911,-1.8856e-05,-5.88e-06,0.0,0 STARLINK-3875,1 52483U 22049AJ  23169.46037059 -.00000588  00000-0 -18856-4 0  9999,2 52483  53.2153 196.8796 0000718  83.9163 276.1911 15.08838014 63380,6917.886,95.438,540.248,539.255,0.0
52483.0,STARLINK-3875,PAYLOAD,2023-06-18 18:59:51,15.08836692,7.3e-05,53.2153,195.3924,78.3291,281.7783,1.7195e-06,-2.6e-06,0.0,0 STARLINK-3875,1 52483U 22049AJ  23169.79157128 -.00000260  00000-0  17195-5 0  9997,2 52483  53.2153 195.3924 0000730  78.3291 281.7783 15.08836692 62356,6917.891,95.438,540.261,539.25,0.0
52483.0,STARLINK-3875,PAYLOAD,2023-06-19 09:18:19,15.08836469,7.37e-05,53.215,192.7151,78.5842,281.5233,6.3255e-05,7.19e-06,0.0,0 STARLINK-3875,1 52483U 22049AJ  23170.38773119  .00000719  00000-0  63255-4 0  9993,2 52483  53.2150 192.7151 0000737  78.5842 281.5233 15.08836469 63527,6917.891,95.438,540.266,539.246,0.0
52483.0,STARLINK-3875,PAYLOAD,2023-06-19 18:50:38,15.08839145,7.6e-05,53.2152,190.9312,76.5744,283.5333,7.4158e-05,8.93e-06,0.0,0 STARLINK-3875,1 52483U 22049AJ  23170.78516972  .00000893  00000-0  74158-4 0  9996,2 52483  53.2152 190.9312 0000760  76.5744 283.5333 15.08839145 63586,6917.883,95.438,540.274,539.222,0.0
52483.0,STARLINK-3875,PAYLOAD,2023-06-20 07:33:43,15.08841255,7.46e-05,53.215,188.552,76.2722,283.8353,0.00010878,1.444e-05,0.0,0 STARLINK-3875,1 52483U 22049AJ  23171.31508743  .00001444  00000-0  10878-3 0  9994,2 52483  53.2150 188.5520 0000746  76.2722 283.8353 15.08841255 62584,6917.877,95.437,540.258,539.225,0.0
52483.0,STARLINK-3875,PAYLOAD,2023-06-20 10:44:29,15.088426,7.67e-05,53.2153,187.9575,74.5799,285.5278,9.5614e-05,1.234e-05,0.0,0 STARLINK-3875,1 52483U 22049AJ  23171.44756707  .00001234  00000-0  95614-4 0  9992,2 52483  53.2153 187.9575 0000767  74.5799 285.5278 15.08842600 63680,6917.872,95.437,540.268,539.207,0.0
52483.0,STARLINK-3875,PAYLOAD,2023-06-21 07:24:30,15.0883984,8.1e-05,53.2153,184.0915,70.6566,289.4514,4.0945e-05,3.64e-06,0.0,0 STARLINK-3875,1 52483U 22049AJ  23172.30869064  .00000364  00000-0  40945-4 0  9999,2 52483  53.2153 184.0915 0000810  70.6566 289.4514 15.08839840 62737,6917.881,95.438,540.306,539.186,0.0
52483.0,STARLINK-3875,PAYLOAD,2023-06-23 00:44:32,15.08835067,8.62e-05,53.2155,176.3607,75.6325,284.4763,2.4416e-05,1.01e-06,0.0,0 STARLINK-3875,1 52483U 22049AJ  23174.03093437  .00000101  00000-0  24416-4 0  9998,2 52483  53.2155 176.3607 0000862  75.6325 284.4763 15.08835067 62992,6917.895,95.438,540.357,539.164,0.0
52483.0,STARLINK-3875,PAYLOAD,2023-06-24 03:46:06,15.08836959,8.61e-05,53.2152,171.305,72.1764,287.9322,3.9332e-05,3.38e-06,0.0,0 STARLINK-3875,1 52483U 22049AJ  23175.15701539  .00000338  00000-0  39332-4 0  9996,2 52483  53.2152 171.3050 0000861  72.1764 287.9322 15.08836959 63164,6917.89,95.438,540.35,539.159,0.0
52483.0,STARLINK-3875,PAYLOAD,2023-06-24 06:56:51,15.08854787,0.0001069,53.2155,170.7101,80.9658,279.1455,0.00017469,2.495e-05,0.0,0 STARLINK-3875,1 52483U 22049AJ  23175.28948073  .00002495  00000-0  17469-3 0  9998,2 52483  53.2155 170.7101 0001069  80.9658 279.1455 15.08854787 63188,6917.835,95.437,540.44,538.961,0.0
52483.0,STARLINK-3875,PAYLOAD,2023-06-24 16:29:11,15.08835589,9.61e-05,53.215,168.9259,73.0095,287.1003,4.0023e-05,3.49e-06,0.0,0 STARLINK-3875,1 52483U 22049AJ  23175.68693743  .00000349  00000-0  40023-4 0  9992,2 52483  53.2150 168.9259 0000961  73.0095 287.1003 15.08835589 63248,6917.894,95.438,540.424,539.094,0.0
52483.0,STARLINK-3875,PAYLOAD,2023-06-26 00:16:54,15.08834628,8.36e-05,53.2142,162.978,79.2743,280.8343,1.8964e-05,1.4e-07,0.0,0 STARLINK-3875,1 52483U 22049AJ  23177.01173969  .00000014  00000-0  18964-4 0  9992,2 52483  53.2142 162.9780 0000836  79.2743 280.8343 15.08834628 63443,6917.897,95.438,540.34,539.183,0.0
52483.0,STARLINK-3875,PAYLOAD,2023-06-26 08:13:49,15.08841262,0.0001031,53.2155,161.4917,89.1189,270.9921,-8.115e-06,-4.17e-06,0.0,0 STARLINK-3875,1 52483U 22049AJ  23177.34293730 -.00000417  00000-0 -81150-5 0  9994,2 52483  53.2155 161.4917 0001031  89.1189 270.9921 15.08841262 63494,6917.877,95.437,540.455,539.028,0.0
52483.0,STARLINK-3875,PAYLOAD,2023-06-27 16:01:32,15.08842369,9.1e-05,53.2158,155.5447,79.8204,280.2891,3.1829e-05,2.19e-06,0.0,0 STARLINK-3875,1 52483U 22049AJ  23178.66773517  .00000219  00000-0  31829-4 0  9991,2 52483  53.2158 155.5447 0000910  79.8204 280.2891 15.08842369 63699,6917.873,95.437,540.368,539.109,0.0
52483.0,STARLINK-3875,PAYLOAD,2023-06-29 03:00:01,15.088375,0.0001267,53.2163,149.0009,104.0256,256.0877,8.3137e-06,-1.56e-06,0.0,0 STARLINK-3875,1 52483U 22049AJ  23180.12501962 -.00000156  00000-0  83137-5 0  9999,2 52483  53.2163 149.0009 0001267 104.0256 256.0877 15.08837500 63912,6917.888,95.438,540.63,538.877,0.0
52483.0,STARLINK-3875,PAYLOAD,2023-06-30 13:58:31,15.08832925,0.0001008,53.2163,142.4599,89.7054,270.4054,-2.1012e-05,-6.22e-06,0.0,0 STARLINK-3875,1 52483U 22049AJ  23181.58230405 -.00000622  00000-0 -21012-4 0  9993,2 52483  53.2163 142.4599 0001008  89.7054 270.4054 15.08832925 64139,6917.902,95.438,540.464,539.07,0.0
52483.0,STARLINK-3875,PAYLOAD,2023-07-02 00:57:00,15.0883671,0.0001034,53.2163,135.9188,92.5034,267.6077,-1.618e-05,-5.45e-06,0.0,0 STARLINK-3875,1 52483U 22049AJ  23183.03958830 -.00000545  00000-0 -16180-4 0  9998,2 52483  53.2163 135.9188 0001034  92.5034 267.6077 15.08836710 64352,6917.89,95.438,540.471,539.04,0.0
52483.0,STARLINK-3875,PAYLOAD,2023-07-03 02:23:10,15.08837983,0.0001053,53.2163,131.1614,100.3124,259.7987,8.2212e-05,1.021e-05,0.0,0 STARLINK-3875,1 52483U 22049AJ  23184.09942742  .00001021  00000-0  82212-4 0  9997,2 52483  53.2163 131.1614 0001053 100.3124 259.7987 15.08837983 64516,6917.887,95.438,540.48,539.023,0.0
52483.0,STARLINK-3875,PAYLOAD,2023-07-04 05:24:43,15.08844013,0.0001091,53.2165,126.106,90.9895,269.1222,6.0428e-05,6.74e-06,0.0,0 STARLINK-3875,1 52483U 22049AJ  23185.22550545  .00000674  00000-0  60428-4 0  9997,2 52483  53.2165 126.1060 0001091  90.9895 269.1222 15.08844013 64685,6917.868,95.437,540.488,538.978,0.0
52483.0,STARLINK-3875,PAYLOAD,2023-07-05 00:29:22,15.08830904,0.0001206,53.2168,122.5365,90.5534,269.5596,7.4835e-05,9.03e-06,0.0,0 STARLINK-3875,1 52483U 22049AJ  23186.02039486  .00000903  00000-0  74835-4 0  9994,2 52483  53.2168 122.5365 0001206  90.5534 269.5596 15.08830904 64806,6917.908,95.438,540.607,538.939,0.0
52483.0,STARLINK-3875,PAYLOAD,2023-07-05 05:15:31,15.0884173,0.0001167,53.2165,121.6443,90.3448,269.7677,1.2776e-05,-8.4e-07,0.0,0 STARLINK-3875,1 52483U 22049AJ  23186.21910940 -.00000084  00000-0  12776-4 0  9995,2 52483  53.2165 121.6443 0001167  90.3448 269.7677 15.08841730 64832,6917.875,95.437,540.547,538.933,0.0
52483.0,STARLINK-3875,PAYLOAD,2023-07-07 01:46:19,15.08838591,0.000112,53.2164,113.3169,89.9393,270.1728,2.6382e-05,1.32e-06,0.0,0 STARLINK-3875,1 52483U 22049AJ  23188.07383111  .00000132  00000-0  26382-4 0  9996,2 52483  53.2164 113.3169 0001120  89.9393 270.1728 15.08838591 65112,6917.885,95.438,540.524,538.975,0.0
52483.0,STARLINK-3875,PAYLOAD,2023-07-08 19:06:21,15.08832077,0.0001185,53.2167,105.591,91.0818,269.031,-5.5829e-05,-1.176e-05,0.0,0 STARLINK-3875,1 52483U 22049AJ  23189.79607966 -.00001176  00000-0 -55829-4 0  9992,2 52483  53.2167 105.5910 0001185  91.0818 269.0310 15.08832077 65374,6917.905,95.438,540.589,538.95,0.0
